[{"OBJECT_NAME":"SL-8 R/B","OBJECT_ID":"1991-006B","EPOCH":"2026-04-11T03:45:27.878688","MEAN_MOTION":13.77500217,"ECCENTRICITY":0.00211503,"INCLINATION":82.9421,"RA_OF_ASC_NODE":145.9048,"ARG_OF_PERICENTER":306.3764,"MEAN_ANOMALY":70.6077,"EPHEMERIS_TYPE":0,"CLASSIFICATION_TYPE":"U","NORAD_CAT_ID":21088,"ELEMENT_SET_NO":999,"REV_AT_EPOCH":76854,"BSTAR":9.0815146e-5,"MEAN_MOTION_DOT":1.06e-6,"MEAN_MOTION_DDOT":0},{"OBJECT_NAME":"OKEAN-3","OBJECT_ID":"1991-039A","EPOCH":"2026-04-11T01:26:42.090432","MEAN_MOTION":15.05003956,"ECCENTRICITY":0.00135304,"INCLINATION":82.5157,"RA_OF_ASC_NODE":305.4734,"ARG_OF_PERICENTER":216.1987,"MEAN_ANOMALY":143.8325,"EPHEMERIS_TYPE":0,"CLASSIFICATION_TYPE":"U","NORAD_CAT_ID":21397,"ELEMENT_SET_NO":999,"REV_AT_EPOCH":86990,"BSTAR":0.00012187837,"MEAN_MOTION_DOT":1.76e-5,"MEAN_MOTION_DDOT":0},{"OBJECT_NAME":"COSMOS 2151","OBJECT_ID":"1991-042A","EPOCH":"2026-04-11T07:11:48.950304","MEAN_MOTION":15.00256912,"ECCENTRICITY":0.00110969,"INCLINATION":82.4968,"RA_OF_ASC_NODE":52.2119,"ARG_OF_PERICENTER":315.766,"MEAN_ANOMALY":44.2676,"EPHEMERIS_TYPE":0,"CLASSIFICATION_TYPE":"U","NORAD_CAT_ID":21422,"ELEMENT_SET_NO":999,"REV_AT_EPOCH":86808,"BSTAR":0.0001198928,"MEAN_MOTION_DOT":1.528e-5,"MEAN_MOTION_DDOT":0},{"OBJECT_NAME":"SL-14 R/B","OBJECT_ID":"1991-042B","EPOCH":"2026-04-11T02:27:15.274368","MEAN_MOTION":14.81863171,"ECCENTRICITY":0.00182169,"INCLINATION":82.496,"RA_OF_ASC_NODE":189.7976,"ARG_OF_PERICENTER":131.5543,"MEAN_ANOMALY":228.7237,"EPHEMERIS_TYPE":0,"CLASSIFICATION_TYPE":"U","NORAD_CAT_ID":21423,"ELEMENT_SET_NO":999,"REV_AT_EPOCH":85787,"BSTAR":3.6213174e-5,"MEAN_MOTION_DOT":3.11e-6,"MEAN_MOTION_DDOT":0},{"OBJECT_NAME":"ERS-1","OBJECT_ID":"1991-050A","EPOCH":"2026-04-11T07:08:41.508960","MEAN_MOTION":14.39475551,"ECCENTRICITY":0.00331107,"INCLINATION":98.785,"RA_OF_ASC_NODE":120.3486,"ARG_OF_PERICENTER":105.1994,"MEAN_ANOMALY":255.2858,"EPHEMERIS_TYPE":0,"CLASSIFICATION_TYPE":"U","NORAD_CAT_ID":21574,"ELEMENT_SET_NO":999,"REV_AT_EPOCH":82042,"BSTAR":9.0584792e-5,"MEAN_MOTION_DOT":2.38e-6,"MEAN_MOTION_DDOT":0},{"OBJECT_NAME":"ARIANE 40 R/B","OBJECT_ID":"1991-050F","EPOCH":"2026-04-11T03:10:40.584288","MEAN_MOTION":14.4291868,"ECCENTRICITY":0.00026822,"INCLINATION":98.1947,"RA_OF_ASC_NODE":152.1405,"ARG_OF_PERICENTER":1.2199,"MEAN_ANOMALY":358.8997,"EPHEMERIS_TYPE":0,"CLASSIFICATION_TYPE":"U","NORAD_CAT_ID":21610,"ELEMENT_SET_NO":999,"REV_AT_EPOCH":82367,"BSTAR":8.6744418e-5,"MEAN_MOTION_DOT":2.48e-6,"MEAN_MOTION_DDOT":0},{"OBJECT_NAME":"INTERCOSMOS 25","OBJECT_ID":"1991-086A","EPOCH":"2026-04-11T06:17:22.949952","MEAN_MOTION":12.12109345,"ECCENTRICITY":0.14860786,"INCLINATION":82.5997,"RA_OF_ASC_NODE":290.3117,"ARG_OF_PERICENTER":46.7446,"MEAN_ANOMALY":324.8392,"EPHEMERIS_TYPE":0,"CLASSIFICATION_TYPE":"U","NORAD_CAT_ID":21819,"ELEMENT_SET_NO":999,"REV_AT_EPOCH":50063,"BSTAR":0.00016167726,"MEAN_MOTION_DOT":8.54e-6,"MEAN_MOTION_DDOT":0},{"OBJECT_NAME":"SL-8 R/B","OBJECT_ID":"1992-008B","EPOCH":"2026-04-11T04:13:50.456352","MEAN_MOTION":13.7597017,"ECCENTRICITY":0.00354918,"INCLINATION":82.9256,"RA_OF_ASC_NODE":243.6075,"ARG_OF_PERICENTER":45.6577,"MEAN_ANOMALY":127.7492,"EPHEMERIS_TYPE":0,"CLASSIFICATION_TYPE":"U","NORAD_CAT_ID":21876,"ELEMENT_SET_NO":999,"REV_AT_EPOCH":71388,"BSTAR":2.8022123e-5,"MEAN_MOTION_DOT":4.3e-7,"MEAN_MOTION_DDOT":0},{"OBJECT_NAME":"SL-8 R/B","OBJECT_ID":"1992-020B","EPOCH":"2026-04-11T03:12:39.310848","MEAN_MOTION":13.75550298,"ECCENTRICITY":0.00284539,"INCLINATION":82.9279,"RA_OF_ASC_NODE":129.6681,"ARG_OF_PERICENTER":204.6189,"MEAN_ANOMALY":215.9536,"EPHEMERIS_TYPE":0,"CLASSIFICATION_TYPE":"U","NORAD_CAT_ID":21938,"ELEMENT_SET_NO":999,"REV_AT_EPOCH":70559,"BSTAR":-3.3362108e-5,"MEAN_MOTION_DOT":-1.7e-7,"MEAN_MOTION_DDOT":0},{"OBJECT_NAME":"USA 81","OBJECT_ID":"1992-023A","EPOCH":"2026-04-11T06:46:25.263840","MEAN_MOTION":14.32378971,"ECCENTRICITY":0.00013035,"INCLINATION":85.0035,"RA_OF_ASC_NODE":112.628,"ARG_OF_PERICENTER":77.6074,"MEAN_ANOMALY":282.5265,"EPHEMERIS_TYPE":0,"CLASSIFICATION_TYPE":"U","NORAD_CAT_ID":21949,"ELEMENT_SET_NO":999,"REV_AT_EPOCH":9945,"BSTAR":4.8299241e-5,"MEAN_MOTION_DOT":1.5e-6,"MEAN_MOTION_DDOT":0},{"OBJECT_NAME":"COSMOS 2219","OBJECT_ID":"1992-076A","EPOCH":"2026-04-11T06:32:44.987424","MEAN_MOTION":14.14088135,"ECCENTRICITY":0.0017451,"INCLINATION":71.0592,"RA_OF_ASC_NODE":309.9581,"ARG_OF_PERICENTER":156.5537,"MEAN_ANOMALY":203.6385,"EPHEMERIS_TYPE":0,"CLASSIFICATION_TYPE":"U","NORAD_CAT_ID":22219,"ELEMENT_SET_NO":999,"REV_AT_EPOCH":72298,"BSTAR":2.7879617e-5,"MEAN_MOTION_DOT":6.0e-8,"MEAN_MOTION_DDOT":0},{"OBJECT_NAME":"SL-16 R/B","OBJECT_ID":"1992-076B","EPOCH":"2026-04-11T07:17:23.125632","MEAN_MOTION":14.16864167,"ECCENTRICITY":0.0011283,"INCLINATION":70.9976,"RA_OF_ASC_NODE":119.6748,"ARG_OF_PERICENTER":37.236,"MEAN_ANOMALY":333.6545,"EPHEMERIS_TYPE":0,"CLASSIFICATION_TYPE":"U","NORAD_CAT_ID":22220,"ELEMENT_SET_NO":999,"REV_AT_EPOCH":72645,"BSTAR":0.00015013934,"MEAN_MOTION_DOT":2.53e-6,"MEAN_MOTION_DDOT":0},{"OBJECT_NAME":"COSMOS 2221","OBJECT_ID":"1992-080A","EPOCH":"2026-04-11T06:31:56.040960","MEAN_MOTION":14.96350076,"ECCENTRICITY":0.0015691,"INCLINATION":82.5022,"RA_OF_ASC_NODE":247.8608,"ARG_OF_PERICENTER":84.3681,"MEAN_ANOMALY":275.9329,"EPHEMERIS_TYPE":0,"CLASSIFICATION_TYPE":"U","NORAD_CAT_ID":22236,"ELEMENT_SET_NO":999,"REV_AT_EPOCH":78566,"BSTAR":0.00016271092,"MEAN_MOTION_DOT":1.871e-5,"MEAN_MOTION_DDOT":0},{"OBJECT_NAME":"SL-16 R/B","OBJECT_ID":"1992-093B","EPOCH":"2026-04-11T05:56:39.423264","MEAN_MOTION":14.15454502,"ECCENTRICITY":0.00065722,"INCLINATION":71.0206,"RA_OF_ASC_NODE":295.919,"ARG_OF_PERICENTER":261.6749,"MEAN_ANOMALY":98.3629,"EPHEMERIS_TYPE":0,"CLASSIFICATION_TYPE":"U","NORAD_CAT_ID":22285,"ELEMENT_SET_NO":999,"REV_AT_EPOCH":71776,"BSTAR":-8.5844691e-5,"MEAN_MOTION_DOT":-2.15e-6,"MEAN_MOTION_DDOT":0},{"OBJECT_NAME":"COSMOS 2228","OBJECT_ID":"1992-094A","EPOCH":"2026-04-11T06:23:59.013600","MEAN_MOTION":14.97369505,"ECCENTRICITY":0.00177984,"INCLINATION":82.5204,"RA_OF_ASC_NODE":206.1215,"ARG_OF_PERICENTER":187.8729,"MEAN_ANOMALY":172.2217,"EPHEMERIS_TYPE":0,"CLASSIFICATION_TYPE":"U","NORAD_CAT_ID":22286,"ELEMENT_SET_NO":999,"REV_AT_EPOCH":78093,"BSTAR":0.00015174831,"MEAN_MOTION_DOT":1.794e-5,"MEAN_MOTION_DDOT":0},{"OBJECT_NAME":"SL-16 R/B","OBJECT_ID":"1993-016B","EPOCH":"2026-04-11T01:54:16.646112","MEAN_MOTION":14.15312941,"ECCENTRICITY":0.00125793,"INCLINATION":71.0067,"RA_OF_ASC_NODE":147.1574,"ARG_OF_PERICENTER":273.2236,"MEAN_ANOMALY":86.7448,"EPHEMERIS_TYPE":0,"CLASSIFICATION_TYPE":"U","NORAD_CAT_ID":22566,"ELEMENT_SET_NO":999,"REV_AT_EPOCH":70675,"BSTAR":0.00011616471,"MEAN_MOTION_DOT":1.79e-6,"MEAN_MOTION_DDOT":0},{"OBJECT_NAME":"COSMOS 2242","OBJECT_ID":"1993-024A","EPOCH":"2026-04-11T04:42:33.755328","MEAN_MOTION":14.96704043,"ECCENTRICITY":0.00160558,"INCLINATION":82.5184,"RA_OF_ASC_NODE":235.6163,"ARG_OF_PERICENTER":191.2244,"MEAN_ANOMALY":168.8623,"EPHEMERIS_TYPE":0,"CLASSIFICATION_TYPE":"U","NORAD_CAT_ID":22626,"ELEMENT_SET_NO":999,"REV_AT_EPOCH":78525,"BSTAR":0.00015438883,"MEAN_MOTION_DOT":1.793e-5,"MEAN_MOTION_DDOT":0}]
