SL-8 R/B                
1 21088U 91006B   26101.15657267  .00000106  00000+0  90815-4 0  9997
2 21088  82.9421 145.9048 0021150 306.3764  70.6077 13.77500217768546
OKEAN-3                 
1 21397U 91039A   26101.06020938  .00001760  00000+0  12188-3 0  9998
2 21397  82.5157 305.4734 0013530 216.1987 143.8325 15.05003956869906
COSMOS 2151             
1 21422U 91042A   26101.29987211  .00001528  00000+0  11989-3 0  9992
2 21422  82.4968  52.2119 0011096 315.7660  44.2676 15.00256912868085
SL-14 R/B               
1 21423U 91042B   26101.10226012  .00000311  00000+0  36213-4 0  9995
2 21423  82.4960 189.7976 0018216 131.5543 228.7237 14.81863171857876
ERS-1                   
1 21574U 91050A   26101.29770265  .00000238  00000+0  90585-4 0  9995
2 21574  98.7850 120.3486 0033110 105.1994 255.2858 14.39475551820424
ARIANE 40 R/B           
1 21610U 91050F   26101.13241417  .00000248  00000+0  86744-4 0  9994
2 21610  98.1947 152.1405 0002682   1.2199 358.8997 14.42918680823676
INTERCOSMOS 25          
1 21819U 91086A   26101.26207118  .00000854  00000+0  16168-3 0  9993
2 21819  82.5997 290.3117 1486078  46.7446 324.8392 12.12109345500634
SL-8 R/B                
1 21876U 92008B   26101.17627843  .00000043  00000+0  28022-4 0  9995
2 21876  82.9256 243.6075 0035491  45.6577 127.7492 13.75970170713880
SL-8 R/B                
1 21938U 92020B   26101.13378832 -.00000017  00000+0 -33362-4 0  9991
2 21938  82.9279 129.6681 0028453 204.6189 215.9536 13.75550298705599
USA 81                  
1 21949U 92023A   26101.28223685  .00000150  00000+0  48299-4 0  9998
2 21949  85.0035 112.6280 0001303  77.6074 282.5265 14.32378971 99458
COSMOS 2219             
1 22219U 92076A   26101.27274291  .00000006  00000+0  27880-4 0  9998
2 22219  71.0592 309.9581 0017451 156.5537 203.6385 14.14088135722987
SL-16 R/B               
1 22220U 92076B   26101.30373988  .00000253  00000+0  15014-3 0  9996
2 22220  70.9976 119.6748 0011283  37.2360 333.6545 14.16864167726457
COSMOS 2221             
1 22236U 92080A   26101.27217640  .00001871  00000+0  16271-3 0  9999
2 22236  82.5022 247.8608 0015691  84.3681 275.9329 14.96350076785663
SL-16 R/B               
1 22285U 92093B   26101.24767851 -.00000215  00000+0 -85845-4 0  9995
2 22285  71.0206 295.9190 0006572 261.6749  98.3629 14.15454502717763
COSMOS 2228             
1 22286U 92094A   26101.26665525  .00001794  00000+0  15175-3 0  9993
2 22286  82.5204 206.1215 0017798 187.8729 172.2217 14.97369505780932
SL-16 R/B               
1 22566U 93016B   26101.07935933  .00000179  00000+0  11616-3 0  9993
2 22566  71.0067 147.1574 0012579 273.2236  86.7448 14.15312941706755
COSMOS 2242             
1 22626U 93024A   26101.19622402  .00001793  00000+0  15439-3 0  9996
2 22626  82.5184 235.6163 0016055 191.2244 168.8623 14.96704043785253
